CTC1_L_00616001-01
1 41423U 25100FR  26037.47810185  .00000000  00000+0  00000-0 0  9993
2 41423  70.0000   0.0000 0000000   0.0000   0.0000  4.78387642    13
CTC1_L_00616001-02
1 41424U 25088SM  26037.47810185  .00000000  00000+0  00000-0 0  9999
2 41424  70.0000   0.0000 0000000   0.0000  36.0000  4.78387642    13
CTC1_L_00616001-03
1 41425U 23590PZ  26037.47810185  .00000000  00000+0  00000-0 0  9996
2 41425  70.0000   0.0000 0000000   0.0000  72.0000  4.78387642    14
CTC1_L_00616001-04
1 41426U 23810KW  26037.47810185  .00000000  00000+0  00000-0 0  9992
2 41426  70.0000   0.0000 0000000   0.0000 108.0000  4.78387642    15
CTC1_L_00616001-05
1 41427U 24101CW  26037.47810185  .00000000  00000+0  00000-0 0  9997
2 41427  70.0000   0.0000 0000000   0.0000 144.0000  4.78387642    16
CTC1_L_00616001-06
1 41428U 26939ET  26037.47810185  .00000000  00000+0  00000-0 0  9999
2 41428  70.0000   0.0000 0000000   0.0000 180.0000  4.78387642    17
CTC1_L_00616001-07
1 41429U 25263CU  26037.47810185  .00000000  00000+0  00000-0 0  9999
2 41429  70.0000   0.0000 0000000   0.0000 216.0000  4.78387642    18
CTC1_L_00616001-08
1 41430U 23506FT  26037.47810185  .00000000  00000+0  00000-0 0  9999
2 41430  70.0000   0.0000 0000000   0.0000 252.0000  4.78387642    10
CTC1_L_00616001-09
1 41431U 25586ZX  26037.47810185  .00000000  00000+0  00000-0 0  9990
2 41431  70.0000   0.0000 0000000   0.0000 288.0000  4.78387642    10
CTC1_L_00616001-10
1 41432U 24855HW  26037.47810185  .00000000  00000+0  00000-0 0  9999
2 41432  70.0000   0.0000 0000000   0.0000 324.0000  4.78387642    12
CTC1_L_00616002-01
1 41433U 23540RH  26037.47810185  .00000000  00000+0  00000-0 0  9990
2 41433  70.0000  30.0000 0000000   0.0000  12.0000  4.78387642    10
CTC1_L_00616002-02
1 41434U 25748CP  26037.47810185  .00000000  00000+0  00000-0 0  9993
2 41434  70.0000  30.0000 0000000   0.0000  48.0000  4.78387642    10
CTC1_L_00616002-03
1 41435U 22915FY  26037.47810185  .00000000  00000+0  00000-0 0  9997
2 41435  70.0000  30.0000 0000000   0.0000  84.0000  4.78387642    11
CTC1_L_00616002-04
1 41436U 25535MH  26037.47810185  .00000000  00000+0  00000-0 0  9999
2 41436  70.0000  30.0000 0000000   0.0000 120.0000  4.78387642    13
CTC1_L_00616002-05
1 41437U 23443IS  26037.47810185  .00000000  00000+0  00000-0 0  9996
2 41437  70.0000  30.0000 0000000   0.0000 156.0000  4.78387642    13
CTC1_L_00616002-06
1 41438U 24532WE  26037.47810185  .00000000  00000+0  00000-0 0  9997
2 41438  70.0000  30.0000 0000000   0.0000 192.0000  4.78387642    14
CTC1_L_00616002-07
1 41439U 25618JD  26037.47810185  .00000000  00000+0  00000-0 0  9994
2 41439  70.0000  30.0000 0000000   0.0000 228.0000  4.78387642    15
CTC1_L_00616002-08
1 41440U 22159DN  26037.47810185  .00000000  00000+0  00000-0 0  9993
2 41440  70.0000  30.0000 0000000   0.0000 264.0000  4.78387642    17
CTC1_L_00616002-09
1 41441U 25944ZZ  26037.47810185  .00000000  00000+0  00000-0 0  9999
2 41441  70.0000  30.0000 0000000   0.0000 300.0000  4.78387642    19
CTC1_L_00616002-10
1 41442U 26088GW  26037.47810185  .00000000  00000+0  00000-0 0  9990
2 41442  70.0000  30.0000 0000000   0.0000 336.0000  4.78387642    19
CTC1_L_00616003-01
1 41443U 26087AY  26037.47810185  .00000000  00000+0  00000-0 0  9990
2 41443  70.0000  60.0000 0000000   0.0000  24.0000  4.78387642    17
CTC1_L_00616003-02
1 41444U 22167HT  26037.47810185  .00000000  00000+0  00000-0 0  9996
2 41444  70.0000  60.0000 0000000   0.0000  60.0000  4.78387642    18
CTC1_L_00616003-03
1 41445U 24198HQ  26037.47810185  .00000000  00000+0  00000-0 0  9993
2 41445  70.0000  60.0000 0000000   0.0000  96.0000  4.78387642    18
CTC1_L_00616003-04
1 41446U 25146UT  26037.47810185  .00000000  00000+0  00000-0 0  9998
2 41446  70.0000  60.0000 0000000   0.0000 132.0000  4.78387642    10
CTC1_L_00616003-05
1 41447U 26197OW  26037.47810185  .00000000  00000+0  00000-0 0  9996
2 41447  70.0000  60.0000 0000000   0.0000 168.0000  4.78387642    10
CTC1_L_00616003-06
1 41448U 24601PB  26037.47810185  .00000000  00000+0  00000-0 0  9995
2 41448  70.0000  60.0000 0000000   0.0000 204.0000  4.78387642    12
CTC1_L_00616003-07
1 41449U 24337NU  26037.47810185  .00000000  00000+0  00000-0 0  9992
2 41449  70.0000  60.0000 0000000   0.0000 240.0000  4.78387642    13
CTC1_L_00616003-08
1 41450U 22072GN  26037.47810185  .00000000  00000+0  00000-0 0  9998
2 41450  70.0000  60.0000 0000000   0.0000 276.0000  4.78387642    14
CTC1_L_00616003-09
1 41451U 26067JE  26037.47810185  .00000000  00000+0  00000-0 0  9997
2 41451  70.0000  60.0000 0000000   0.0000 312.0000  4.78387642    16
CTC1_L_00616003-10
1 41452U 25132XV  26037.47810185  .00000000  00000+0  00000-0 0  9990
2 41452  70.0000  60.0000 0000000   0.0000 348.0000  4.78387642    16
CTC1_L_00616004-01
1 41453U 26556VI  26037.47810185  .00000000  00000+0  00000-0 0  9992
2 41453  70.0000  90.0000 0000000   0.0000  36.0000  4.78387642    14
CTC1_L_00616004-02
1 41454U 22151HS  26037.47810185  .00000000  00000+0  00000-0 0  9990
2 41454  70.0000  90.0000 0000000   0.0000  72.0000  4.78387642    15
CTC1_L_00616004-03
1 41455U 23299BY  26037.47810185  .00000000  00000+0  00000-0 0  9995
2 41455  70.0000  90.0000 0000000   0.0000 108.0000  4.78387642    16
CTC1_L_00616004-04
1 41456U 22690XR  26037.47810185  .00000000  00000+0  00000-0 0  9990
2 41456  70.0000  90.0000 0000000   0.0000 144.0000  4.78387642    17
CTC1_L_00616004-05
1 41457U 22263EO  26037.47810185  .00000000  00000+0  00000-0 0  9997
2 41457  70.0000  90.0000 0000000   0.0000 180.0000  4.78387642    18
CTC1_L_00616004-06
1 41458U 23060FX  26037.47810185  .00000000  00000+0  00000-0 0  9994
2 41458  70.0000  90.0000 0000000   0.0000 216.0000  4.78387642    19
CTC1_L_00616004-07
1 41459U 24623CZ  26037.47810185  .00000000  00000+0  00000-0 0  9991
2 41459  70.0000  90.0000 0000000   0.0000 252.0000  4.78387642    10
CTC1_L_00616004-08
1 41460U 26396HJ  26037.47810185  .00000000  00000+0  00000-0 0  9992
2 41460  70.0000  90.0000 0000000   0.0000 288.0000  4.78387642    11
CTC1_L_00616004-09
1 41461U 26009IP  26037.47810185  .00000000  00000+0  00000-0 0  9994
2 41461  70.0000  90.0000 0000000   0.0000 324.0000  4.78387642    13
CTC1_L_00616004-10
1 41462U 24452AC  26037.47810185  .00000000  00000+0  00000-0 0  9995
2 41462  70.0000  90.0000 0000000   0.0000   0.0000  4.78387642    15
CTC1_L_00616005-01
1 41463U 23723OX  26037.47810185  .00000000  00000+0  00000-0 0  9996
2 41463  70.0000 120.0000 0000000   0.0000  48.0000  4.78387642    12
CTC1_L_00616005-02
1 41464U 26323PJ  26037.47810185  .00000000  00000+0  00000-0 0  9996
2 41464  70.0000 120.0000 0000000   0.0000  84.0000  4.78387642    13
CTC1_L_00616005-03
1 41465U 26057LE  26037.47810185  .00000000  00000+0  00000-0 0  9991
2 41465  70.0000 120.0000 0000000   0.0000 120.0000  4.78387642    15
CTC1_L_00616005-04
1 41466U 24120XL  26037.47810185  .00000000  00000+0  00000-0 0  9991
2 41466  70.0000 120.0000 0000000   0.0000 156.0000  4.78387642    15
CTC1_L_00616005-05
1 41467U 26072PC  26037.47810185  .00000000  00000+0  00000-0 0  9990
2 41467  70.0000 120.0000 0000000   0.0000 192.0000  4.78387642    16
CTC1_L_00616005-06
1 41468U 23848PR  26037.47810185  .00000000  00000+0  00000-0 0  9999
2 41468  70.0000 120.0000 0000000   0.0000 228.0000  4.78387642    17
CTC1_L_00616005-07
1 41469U 22258AT  26037.47810185  .00000000  00000+0  00000-0 0  9994
2 41469  70.0000 120.0000 0000000   0.0000 264.0000  4.78387642    18
CTC1_L_00616005-08
1 41470U 26468CG  26037.47810185  .00000000  00000+0  00000-0 0  9993
2 41470  70.0000 120.0000 0000000   0.0000 300.0000  4.78387642    11
CTC1_L_00616005-09
1 41471U 25801JF  26037.47810185  .00000000  00000+0  00000-0 0  9994
2 41471  70.0000 120.0000 0000000   0.0000 336.0000  4.78387642    11
CTC1_L_00616005-10
1 41472U 26187LR  26037.47810185  .00000000  00000+0  00000-0 0  9993
2 41472  70.0000 120.0000 0000000   0.0000  12.0000  4.78387642    13
CTC1_L_00616006-01
1 41473U 24554HT  26037.47810185  .00000000  00000+0  00000-0 0  9990
2 41473  70.0000 150.0000 0000000   0.0000  60.0000  4.78387642    10
CTC1_L_00616006-02
1 41474U 25144UW  26037.47810185  .00000000  00000+0  00000-0 0  9997
2 41474  70.0000 150.0000 0000000   0.0000  96.0000  4.78387642    10
CTC1_L_00616006-03
1 41475U 26515XC  26037.47810185  .00000000  00000+0  00000-0 0  9991
2 41475  70.0000 150.0000 0000000   0.0000 132.0000  4.78387642    12
CTC1_L_00616006-04
1 41476U 26987MF  26037.47810185  .00000000  00000+0  00000-0 0  9995
2 41476  70.0000 150.0000 0000000   0.0000 168.0000  4.78387642    12
CTC1_L_00616006-05
1 41477U 23959CY  26037.47810185  .00000000  00000+0  00000-0 0  9992
2 41477  70.0000 150.0000 0000000   0.0000 204.0000  4.78387642    14
CTC1_L_00616006-06
1 41478U 23102YP  26037.47810185  .00000000  00000+0  00000-0 0  9993
2 41478  70.0000 150.0000 0000000   0.0000 240.0000  4.78387642    15
CTC1_L_00616006-07
1 41479U 26329AH  26037.47810185  .00000000  00000+0  00000-0 0  9998
2 41479  70.0000 150.0000 0000000   0.0000 276.0000  4.78387642    15
CTC1_L_00616006-08
1 41480U 24865FU  26037.47810185  .00000000  00000+0  00000-0 0  9993
2 41480  70.0000 150.0000 0000000   0.0000 312.0000  4.78387642    18
CTC1_L_00616006-09
1 41481U 22365FV  26037.47810185  .00000000  00000+0  00000-0 0  9997
2 41481  70.0000 150.0000 0000000   0.0000 348.0000  4.78387642    18
CTC1_L_00616006-10
1 41482U 24486OS  26037.47810185  .00000000  00000+0  00000-0 0  9994
2 41482  70.0000 150.0000 0000000   0.0000  24.0000  4.78387642    10
CTC1_L_00616007-01
1 41483U 26732DE  26037.47810185  .00000000  00000+0  00000-0 0  9991
2 41483  70.0000 180.0000 0000000   0.0000  72.0000  4.78387642    17
CTC1_L_00616007-02
1 41484U 26815PW  26037.47810185  .00000000  00000+0  00000-0 0  9994
2 41484  70.0000 180.0000 0000000   0.0000 108.0000  4.78387642    18
